[{"OBJECT_NAME":"FLOCK 4Q-28","OBJECT_ID":"2023-174AA","EPOCH":"2026-03-09T16:41:54.679200","MEAN_MOTION":15.49046336,"ECCENTRICITY":0.00074408,"INCLINATION":97.3906,"RA_OF_ASC_NODE":157.0774,"ARG_OF_PERICENTER":152.5288,"MEAN_ANOMALY":207.6358,"EPHEMERIS_TYPE":0,"CLASSIFICATION_TYPE":"U","NORAD_CAT_ID":58280,"ELEMENT_SET_NO":999,"REV_AT_EPOCH":13031,"BSTAR":0.00054746568,"MEAN_MOTION_DOT":0.00029677,"MEAN_MOTION_DDOT":0},{"OBJECT_NAME":"COSMOS 2251 DEB","OBJECT_ID":"1993-036GV","EPOCH":"2026-03-09T11:43:36.136416","MEAN_MOTION":15.43449097,"ECCENTRICITY":0.00140641,"INCLINATION":73.9879,"RA_OF_ASC_NODE":98.5343,"ARG_OF_PERICENTER":278.4035,"MEAN_ANOMALY":81.558,"EPHEMERIS_TYPE":0,"CLASSIFICATION_TYPE":"U","NORAD_CAT_ID":34010,"ELEMENT_SET_NO":999,"REV_AT_EPOCH":90611,"BSTAR":0.0056310158,"MEAN_MOTION_DOT":0.00261542,"MEAN_MOTION_DDOT":0}]
